{"type": "FeatureCollection", "features": [ {"type": "Feature", "properties": {"norad_id": 32289, "name": "YAOGAN-3", "group": "resource", "lat": 29.885786808830986, "lon": -153.67302493474057, "alt_km": 596.6217964122034, "timestamp": "2025-12-21T05:44:51.232403+00:00", "meta": {"OBJECT_NAME": "YAOGAN-3", "OBJECT_ID": "2007-055A", "EPOCH": "2025-12-20T22:37:50.003040", "MEAN_MOTION": 14.89891227, "ECCENTRICITY": 0.00011245, "INCLINATION": 97.8355, "RA_OF_ASC_NODE": 21.494, "ARG_OF_PERICENTER": 73.8178, "MEAN_ANOMALY": 286.3163, "EPHEMERIS_TYPE": 0, "CLASSIFICATION_TYPE": "U", "NORAD_CAT_ID": 32289, "ELEMENT_SET_NO": 999, "REV_AT_EPOCH": 97931, "BSTAR": 0.00011345768, "MEAN_MOTION_DOT": 1.035e-05, "MEAN_MOTION_DDOT": 0}, "tle": {"line1": "1 32289U 07055A   25354.94293985  .00001035  00000+0  11346-3 0  9995", "line2": "2 32289  97.8355  21.4940 0001124  73.8178 286.3163 14.89891227979314"}}, "geometry": {"type": "Point", "coordinates": [-153.67302493474057, 29.885786808830986]}}, {"type": "Feature", "properties": {"norad_id": 32376, "name": "COSMO-SKYMED 2", "group": "resource", "lat": -12.724108221403174, "lon": -5.357100599860143, "alt_km": 627.3912373821686, "timestamp": "2025-12-21T05:44:51.232414+00:00", "meta": {"OBJECT_NAME": "COSMO-SKYMED 2", "OBJECT_ID": "2007-059A", "EPOCH": "2025-12-20T22:23:59.324928", "MEAN_MOTION": 14.8215176, "ECCENTRICITY": 0.00013473, "INCLINATION": 97.8804, "RA_OF_ASC_NODE": 176.1337, "ARG_OF_PERICENTER": 83.1708, "MEAN_ANOMALY": 276.9659, "EPHEMERIS_TYPE": 0, "CLASSIFICATION_TYPE": "U", "NORAD_CAT_ID": 32376, "ELEMENT_SET_NO": 999, "REV_AT_EPOCH": 97559, "BSTAR": 5.1177759e-05, "MEAN_MOTION_DOT": 3.55e-06, "MEAN_MOTION_DDOT": 0}, "tle": {"line1": "1 32376U 07059A   25354.93332552  .00000355  00000+0  51178-4 0  9991", "line2": "2 32376  97.8804 176.1337 0001347  83.1708 276.9659 14.82151760975593"}}, "geometry": {"type": "Point", "coordinates": [-5.357100599860143, -12.724108221403174]}}, {"type": "Feature", "properties": {"norad_id": 32382, "name": "RADARSAT-2", "group": "resource", "lat": -12.004704796516862, "lon": 1.5454668939558707, "alt_km": 796.240952024239, "timestamp": "2025-12-21T05:44:51.232424+00:00", "meta": {"OBJECT_NAME": "RADARSAT-2", "OBJECT_ID": "2007-061A", "EPOCH": "2025-12-20T23:05:13.233408", "MEAN_MOTION": 14.29983502, "ECCENTRICITY": 0.00011291, "INCLINATION": 98.579, "RA_OF_ASC_NODE": 359.4325, "ARG_OF_PERICENTER": 85.8176, "MEAN_ANOMALY": 274.3136, "EPHEMERIS_TYPE": 0, "CLASSIFICATION_TYPE": "U", "NORAD_CAT_ID": 32382, "ELEMENT_SET_NO": 999, "REV_AT_EPOCH": 94048, "BSTAR": -2.9849341e-05, "MEAN_MOTION_DOT": -1.21e-06, "MEAN_MOTION_DDOT": 0}, "tle": {"line1": "1 32382U 07061A   25354.96195872 -.00000121  00000+0 -29849-4 0  9999", "line2": "2 32382  98.5790 359.4325 0001129  85.8176 274.3136 14.29983502940481"}}, "geometry": {"type": "Point", "coordinates": [1.5454668939558707, -12.004704796516862]}}, {"type": "Feature", "properties": {"norad_id": 32783, "name": "CARTOSAT-2A", "group": "resource", "lat": -53.55640680775844, "lon": -145.88924773341577, "alt_km": 641.3879013034466, "timestamp": "2025-12-21T05:44:51.232434+00:00", "meta": {"OBJECT_NAME": "CARTOSAT-2A", "OBJECT_ID": "2008-021A", "EPOCH": "2025-12-20T22:11:45.186720", "MEAN_MOTION": 14.78950711, "ECCENTRICITY": 0.00112096, "INCLINATION": 97.7923, "RA_OF_ASC_NODE": 44.4929, "ARG_OF_PERICENTER": 338.0558, "MEAN_ANOMALY": 22.0172, "EPHEMERIS_TYPE": 0, "CLASSIFICATION_TYPE": "U", "NORAD_CAT_ID": 32783, "ELEMENT_SET_NO": 999, "REV_AT_EPOCH": 95245, "BSTAR": 8.2012663e-05, "MEAN_MOTION_DOT": 5.55e-06, "MEAN_MOTION_DDOT": 0}, "tle": {"line1": "1 32783U 08021A   25354.92482855  .00000555  00000+0  82013-4 0  9998", "line2": "2 32783  97.7923  44.4929 0011209 338.0558  22.0172 14.78950711952451"}}, "geometry": {"type": "Point", "coordinates": [-145.88924773341577, -53.55640680775844]}}, {"type": "Feature", "properties": {"norad_id": 33320, "name": "HUANJING 1A (HJ-1A)", "group": "resource", "lat": -55.144919471260955, "lon": 152.05004640571528, "alt_km": 634.6712432042077, "timestamp": "2025-12-21T05:44:51.232445+00:00", "meta": {"OBJECT_NAME": "HUANJING 1A (HJ-1A)", "OBJECT_ID": "2008-041A", "EPOCH": "2025-12-20T22:12:41.516928", "MEAN_MOTION": 14.83417427, "ECCENTRICITY": 0.00195178, "INCLINATION": 97.6536, "RA_OF_ASC_NODE": 342.8819, "ARG_OF_PERICENTER": 8.468, "MEAN_ANOMALY": 351.686, "EPHEMERIS_TYPE": 0, "CLASSIFICATION_TYPE": "U", "NORAD_CAT_ID": 33320, "ELEMENT_SET_NO": 999, "REV_AT_EPOCH": 93197, "BSTAR": 0.00014193845, "MEAN_MOTION_DOT": 1.117e-05, "MEAN_MOTION_DDOT": 0}, "tle": {"line1": "1 33320U 08041A   25354.92548052  .00001117  00000+0  14194-3 0  9999", "line2": "2 33320  97.6536 342.8819 0019517   8.4680 351.6860 14.83417427931972"}}, "geometry": {"type": "Point", "coordinates": [152.05004640571528, -55.144919471260955]}}, {"type": "Feature", "properties": {"norad_id": 33321, "name": "HUANJING 1B (HJ-1B)", "group": "resource", "lat": 77.20312037165328, "lon": -49.36543975701814, "alt_km": 590.248383978902, "timestamp": "2025-12-21T05:44:51.232455+00:00", "meta": {"OBJECT_NAME": "HUANJING 1B (HJ-1B)", "OBJECT_ID": "2008-041B", "EPOCH": "2025-12-20T22:54:50.088096", "MEAN_MOTION": 14.82842697, "ECCENTRICITY": 0.00379964, "INCLINATION": 97.6396, "RA_OF_ASC_NODE": 346.5856, "ARG_OF_PERICENTER": 49.8273, "MEAN_ANOMALY": 310.6258, "EPHEMERIS_TYPE": 0, "CLASSIFICATION_TYPE": "U", "NORAD_CAT_ID": 33321, "ELEMENT_SET_NO": 999, "REV_AT_EPOCH": 93199, "BSTAR": 0.00016256156, "MEAN_MOTION_DOT": 1.281e-05, "MEAN_MOTION_DDOT": 0}, "tle": {"line1": "1 33321U 08041B   25354.95474639  .00001281  00000+0  16256-3 0  9995", "line2": "2 33321  97.6396 346.5856 0037996  49.8273 310.6258 14.82842697931995"}}, "geometry": {"type": "Point", "coordinates": [-49.36543975701814, 77.20312037165328]}}, {"type": "Feature", "properties": {"norad_id": 33331, "name": "GEOEYE 1", "group": "resource", "lat": -52.38861710174805, "lon": -124.27252041375726, "alt_km": 683.0429578641379, "timestamp": "2025-12-21T05:44:51.232466+00:00", "meta": {"OBJECT_NAME": "GEOEYE 1", "OBJECT_ID": "2008-042A", "EPOCH": "2025-12-20T22:07:42.086496", "MEAN_MOTION": 14.64710239, "ECCENTRICITY": 0.00028307, "INCLINATION": 98.1243, "RA_OF_ASC_NODE": 66.0995, "ARG_OF_PERICENTER": 249.0579, "MEAN_ANOMALY": 111.0321, "EPHEMERIS_TYPE": 0, "CLASSIFICATION_TYPE": "U", "NORAD_CAT_ID": 33331, "ELEMENT_SET_NO": 999, "REV_AT_EPOCH": 92405, "BSTAR": 8.4230938e-05, "MEAN_MOTION_DOT": 4.01e-06, "MEAN_MOTION_DDOT": 0}, "tle": {"line1": "1 33331U 08042A   25354.92201489  .00000401  00000+0  84231-4 0  9997", "line2": "2 33331  98.1243  66.0995 0002830 249.0579 111.0321 14.64710239924052"}}, "geometry": {"type": "Point", "coordinates": [-124.27252041375726, -52.38861710174805]}}, {"type": "Feature", "properties": {"norad_id": 33396, "name": "THEOS", "group": "resource", "lat": 13.568167284122596, "lon": -124.83188387630888, "alt_km": 825.736132321631, "timestamp": "2025-12-21T05:44:51.232477+00:00", "meta": {"OBJECT_NAME": "THEOS", "OBJECT_ID": "2008-049A", "EPOCH": "2025-12-20T22:12:13.765248", "MEAN_MOTION": 14.20098263, "ECCENTRICITY": 0.00011859, "INCLINATION": 98.5862, "RA_OF_ASC_NODE": 52.7735, "ARG_OF_PERICENTER": 96.1755, "MEAN_ANOMALY": 263.9557, "EPHEMERIS_TYPE": 0, "CLASSIFICATION_TYPE": "U", "NORAD_CAT_ID": 33396, "ELEMENT_SET_NO": 999, "REV_AT_EPOCH": 89266, "BSTAR": 7.0472094e-05, "MEAN_MOTION_DOT": 1.08e-06, "MEAN_MOTION_DDOT": 0}, "tle": {"line1": "1 33396U 08049A   25354.92515932  .00000108  00000+0  70472-4 0  9992", "line2": "2 33396  98.5862  52.7735 0001185  96.1755 263.9557 14.20098263892664"}}, "geometry": {"type": "Point", "coordinates": [-124.83188387630888, 13.568167284122596]}}, {"type": "Feature", "properties": {"norad_id": 33412, "name": "COSMO-SKYMED 3", "group": "resource", "lat": -20.54588390707748, "lon": -151.26257047921143, "alt_km": 566.7642980367182, "timestamp": "2025-12-21T05:44:51.232494+00:00", "meta": {"OBJECT_NAME": "COSMO-SKYMED 3", "OBJECT_ID": "2008-054A", "EPOCH": "2025-12-20T21:51:49.211136", "MEAN_MOTION": 15.05428213, "ECCENTRICITY": 0.00169511, "INCLINATION": 97.8464, "RA_OF_ASC_NODE": 205.4408, "ARG_OF_PERICENTER": 144.504, "MEAN_ANOMALY": 215.7318, "EPHEMERIS_TYPE": 0, "CLASSIFICATION_TYPE": "U", "NORAD_CAT_ID": 33412, "ELEMENT_SET_NO": 999, "REV_AT_EPOCH": 93010, "BSTAR": 0.00040361198, "MEAN_MOTION_DOT": 5.747e-05, "MEAN_MOTION_DDOT": 0}, "tle": {"line1": "1 33412U 08054A   25354.91098624  .00005747  00000+0  40361-3 0  9997", "line2": "2 33412  97.8464 205.4408 0016951 144.5040 215.7318 15.05428213930107"}}, "geometry": {"type": "Point", "coordinates": [-151.26257047921143, -20.54588390707748]}}, {"type": "Feature", "properties": {"norad_id": 33446, "name": "YAOGAN-4", "group": "resource", "lat": -12.75090854744048, "lon": -72.93937873566342, "alt_km": 619.8626414806668, "timestamp": "2025-12-21T05:44:51.232515+00:00", "meta": {"OBJECT_NAME": "YAOGAN-4", "OBJECT_ID": "2008-061A", "EPOCH": "2025-12-20T07:07:49.061568", "MEAN_MOTION": 14.82702731, "ECCENTRICITY": 0.00131175, "INCLINATION": 97.9192, "RA_OF_ASC_NODE": 284.3224, "ARG_OF_PERICENTER": 296.7402, "MEAN_ANOMALY": 63.2469, "EPHEMERIS_TYPE": 0, "CLASSIFICATION_TYPE": "U", "NORAD_CAT_ID": 33446, "ELEMENT_SET_NO": 999, "REV_AT_EPOCH": 91915, "BSTAR": 0.000123707, "MEAN_MOTION_DOT": 9.46e-06, "MEAN_MOTION_DDOT": 0}, "tle": {"line1": "1 33446U 08061A   25354.29709562  .00000946  00000+0  12371-3 0  9999", "line2": "2 33446  97.9192 284.3224 0013117 296.7402  63.2469 14.82702731919157"}}, "geometry": {"type": "Point", "coordinates": [-72.93937873566342, -12.75090854744048]}}]}